{
  "type": "FeatureCollection",
  "features": [
    {
      "type": "Feature",
      "properties": {
        "norad_id": 56759,
        "name": "NVS-01 (IRNSS-1J)",
        "group": "gnss",
        "lat": 1.5235919546999535,
        "lon": 35.638661213595455,
        "alt_km": 35808.53073879668,
        "timestamp": "2025-12-23T11:34:48.411014+00:00",
        "meta_object_name": "NVS-01 (IRNSS-1J)",
        "meta_object_id": "2023-076A",
        "meta_epoch": "2025-12-22T22:20:24.211392",
        "meta_mean_motion": 1.00272346,
        "meta_eccentricity": 0.0008802,
        "meta_inclination": 2.5947,
        "meta_ra_of_asc_node": 251.2401,
        "meta_arg_of_pericenter": 16.7156,
        "meta_mean_anomaly": 288.4369,
        "meta_ephemeris_type": 0,
        "meta_classification_type": "U",
        "meta_norad_cat_id": 56759,
        "meta_element_set_no": 999,
        "meta_rev_at_epoch": 934,
        "meta_bstar": 0,
        "meta_mean_motion_dot": -3.13e-06,
        "meta_mean_motion_ddot": 0,
        "tle_line1": "1 56759U 23076A   25356.93083578 -.00000313  00000+0  00000+0 0  9990",
        "tle_line2": "2 56759   2.5947 251.2401 0008802  16.7156 288.4369  1.00272346  9341"
      },
      "geometry": {
        "type": "Point",
        "coordinates": [
          35.638661213595455,
          1.5235919546999535
        ]
      }
    },
    {
      "type": "Feature",
      "properties": {
        "norad_id": 57517,
        "name": "COSMOS 2569 (703K)",
        "group": "gnss",
        "lat": 23.807715377456486,
        "lon": -113.1875402693181,
        "alt_km": 19146.147193090044,
        "timestamp": "2025-12-23T11:34:48.411026+00:00",
        "meta_object_name": "COSMOS 2569 (703K)",
        "meta_object_id": "2023-114A",
        "meta_epoch": "2025-12-22T08:14:44.480832",
        "meta_mean_motion": 2.13104025,
        "meta_eccentricity": 0.00108594,
        "meta_inclination": 65.199,
        "meta_ra_of_asc_node": 78.589,
        "meta_arg_of_pericenter": 287.0596,
        "meta_mean_anomaly": 72.8655,
        "meta_ephemeris_type": 0,
        "meta_classification_type": "U",
        "meta_norad_cat_id": 57517,
        "meta_element_set_no": 999,
        "meta_rev_at_epoch": 1849,
        "meta_bstar": 0,
        "meta_mean_motion_dot": -3e-08,
        "meta_mean_motion_ddot": 0,
        "tle_line1": "1 57517U 23114A   25356.34357038 -.00000003  00000+0  00000+0 0  9992",
        "tle_line2": "2 57517  65.1990  78.5890 0010859 287.0596  72.8655  2.13104025 18497"
      },
      "geometry": {
        "type": "Point",
        "coordinates": [
          -113.1875402693181,
          23.807715377456486
        ]
      }
    },
    {
      "type": "Feature",
      "properties": {
        "norad_id": 58654,
        "name": "BEIDOU-3 M28 (C50)",
        "group": "gnss",
        "lat": -20.13788119625889,
        "lon": -97.20800180047465,
        "alt_km": 21528.238598565156,
        "timestamp": "2025-12-23T11:34:48.411042+00:00",
        "meta_object_name": "BEIDOU-3 M28 (C50)",
        "meta_object_id": "2023-207A",
        "meta_epoch": "2025-12-22T15:21:59.062752",
        "meta_mean_motion": 1.86229735,
        "meta_eccentricity": 0.0002827,
        "meta_inclination": 55.5928,
        "meta_ra_of_asc_node": 68.2662,
        "meta_arg_of_pericenter": 274.5926,
        "meta_mean_anomaly": 85.4262,
        "meta_ephemeris_type": 0,
        "meta_classification_type": "U",
        "meta_norad_cat_id": 58654,
        "meta_element_set_no": 999,
        "meta_rev_at_epoch": 1355,
        "meta_bstar": 0,
        "meta_mean_motion_dot": -3e-07,
        "meta_mean_motion_ddot": 0,
        "tle_line1": "1 58654U 23207A   25356.64026693 -.00000030  00000+0  00000+0 0  9991",
        "tle_line2": "2 58654  55.5928  68.2662 0002827 274.5926  85.4262  1.86229735 13552"
      },
      "geometry": {
        "type": "Point",
        "coordinates": [
          -97.20800180047465,
          -20.13788119625889
        ]
      }
    },
    {
      "type": "Feature",
      "properties": {
        "norad_id": 58655,
        "name": "BEIDOU-3 M26 (C48)",
        "group": "gnss",
        "lat": -16.069020490409372,
        "lon": 56.873875994478816,
        "alt_km": 21528.363665105902,
        "timestamp": "2025-12-23T11:34:48.411056+00:00",
        "meta_object_name": "BEIDOU-3 M26 (C48)",
        "meta_object_id": "2023-207B",
        "meta_epoch": "2025-12-22T10:30:28.265760",
        "meta_mean_motion": 1.8623125,
        "meta_eccentricity": 0.0004167,
        "meta_inclination": 55.5947,
        "meta_ra_of_asc_node": 68.2592,
        "meta_arg_of_pericenter": 260.2185,
        "meta_mean_anomaly": 99.7849,
        "meta_ephemeris_type": 0,
        "meta_classification_type": "U",
        "meta_norad_cat_id": 58655,
        "meta_element_set_no": 999,
        "meta_rev_at_epoch": 1353,
        "meta_bstar": 0,
        "meta_mean_motion_dot": -3e-07,
        "meta_mean_motion_ddot": 0,
        "tle_line1": "1 58655U 23207B   25356.43782715 -.00000030  00000+0  00000+0 0  9993",
        "tle_line2": "2 58655  55.5947  68.2592 0004167 260.2185  99.7849  1.86231250 13536"
      },
      "geometry": {
        "type": "Point",
        "coordinates": [
          56.873875994478816,
          -16.069020490409372
        ]
      }
    },
    {
      "type": "Feature",
      "properties": {
        "norad_id": 59598,
        "name": "GSAT0225 (GALILEO 29)",
        "group": "gnss",
        "lat": 25.14505866730095,
        "lon": 125.16079438537052,
        "alt_km": 23225.093511273022,
        "timestamp": "2025-12-23T11:34:48.411071+00:00",
        "meta_object_name": "GSAT0225 (GALILEO 29)",
        "meta_object_id": "2024-079A",
        "meta_epoch": "2025-12-22T20:21:50.564160",
        "meta_mean_motion": 1.70474954,
        "meta_eccentricity": 0.00022188,
        "meta_inclination": 55.0069,
        "meta_ra_of_asc_node": 106.0132,
        "meta_arg_of_pericenter": 188.6953,
        "meta_mean_anomaly": 173.4251,
        "meta_ephemeris_type": 0,
        "meta_classification_type": "U",
        "meta_norad_cat_id": 59598,
        "meta_element_set_no": 999,
        "meta_rev_at_epoch": 1031,
        "meta_bstar": 0,
        "meta_mean_motion_dot": 8e-08,
        "meta_mean_motion_ddot": 0,
        "tle_line1": "1 59598U 24079A   25356.84850190  .00000008  00000+0  00000+0 0  9990",
        "tle_line2": "2 59598  55.0069 106.0132 0002218 188.6953 173.4251  1.70474954 10318"
      },
      "geometry": {
        "type": "Point",
        "coordinates": [
          125.16079438537052,
          25.14505866730095
        ]
      }
    },
    {
      "type": "Feature",
      "properties": {
        "norad_id": 59600,
        "name": "GSAT0227 (GALILEO 30)",
        "group": "gnss",
        "lat": -54.08855653046541,
        "lon": 30.98189464059211,
        "alt_km": 23235.859141723366,
        "timestamp": "2025-12-23T11:34:48.411081+00:00",
        "meta_object_name": "GSAT0227 (GALILEO 30)",
        "meta_object_id": "2024-079C",
        "meta_epoch": "2025-12-21T20:31:35.455872",
        "meta_mean_motion": 1.70474868,
        "meta_eccentricity": 0.00028355,
        "meta_inclination": 55.0019,
        "meta_ra_of_asc_node": 106.0394,
        "meta_arg_of_pericenter": 117.3615,
        "meta_mean_anomaly": 242.6419,
        "meta_ephemeris_type": 0,
        "meta_classification_type": "U",
        "meta_norad_cat_id": 59600,
        "meta_element_set_no": 999,
        "meta_rev_at_epoch": 1034,
        "meta_bstar": 0,
        "meta_mean_motion_dot": 4e-08,
        "meta_mean_motion_ddot": 0,
        "tle_line1": "1 59600U 24079C   25355.85527148  .00000004  00000+0  00000+0 0  9994",
        "tle_line2": "2 59600  55.0019 106.0394 0002835 117.3615 242.6419  1.70474868 10348"
      },
      "geometry": {
        "type": "Point",
        "coordinates": [
          30.98189464059211,
          -54.08855653046541
        ]
      }
    },
    {
      "type": "Feature",
      "properties": {
        "norad_id": 61182,
        "name": "GSAT0232 (GALILEO 32)",
        "group": "gnss",
        "lat": 49.083804720882085,
        "lon": -7.080020738301506,
        "alt_km": 23216.5310298202,
        "timestamp": "2025-12-23T11:34:48.411091+00:00",
        "meta_object_name": "GSAT0232 (GALILEO 32)",
        "meta_object_id": "2024-167A",
        "meta_epoch": "2025-12-22T11:14:58.318656",
        "meta_mean_motion": 1.70473576,
        "meta_eccentricity": 0.00018839,
        "meta_inclination": 55.2381,
        "meta_ra_of_asc_node": 226.1639,
        "meta_arg_of_pericenter": 204.0949,
        "meta_mean_anomaly": 6.8996,
        "meta_ephemeris_type": 0,
        "meta_classification_type": "U",
        "meta_norad_cat_id": 61182,
        "meta_element_set_no": 999,
        "meta_rev_at_epoch": 786,
        "meta_bstar": 0,
        "meta_mean_motion_dot": 7.4e-07,
        "meta_mean_motion_ddot": 0,
        "tle_line1": "1 61182U 24167A   25356.46873054  .00000074  00000+0  00000+0 0  9995",
        "tle_line2": "2 61182  55.2381 226.1639 0001883 204.0949   6.8996  1.70473576  7860"
      },
      "geometry": {
        "type": "Point",
        "coordinates": [
          -7.080020738301506,
          49.083804720882085
        ]
      }
    }
  ]
}